0 IRIDIUM 11
1 25578U 98074B   13282.44864106  .00000079  00000-0  21036-4 0  5767
2 25578 086.3927 098.5751 0002028 103.1048 315.4143 14.34218763784377
0 IRIDIUM 11
1 25578U 98074B   13283.48764227  .00000113  00000-0  33257-4 0  5773
2 25578 086.3927 098.1404 0002031 103.3729 276.3150 14.34219352784525
0 IRIDIUM 11
1 25578U 98074B   13284.47123319  .00000131  00000-0  39831-4 0  5789
2 25578 086.3926 097.7288 0002029 103.5817 311.3632 14.34219746784663
0 IRIDIUM 11
1 25578U 98074B   13285.44997454  .00000112  00000-0  32903-4 0  5799
2 25578 086.3927 097.3192 0002015 103.8745 321.3045 14.34220019784802
0 IRIDIUM 11
1 25578U 98074B   13286.49405052  .00000099  00000-0  28315-4 0  5801
2 25578 086.3928 096.8823 0002011 104.1472 308.3889 14.34220261784951
0 IRIDIUM 11
1 25578U 98074B   13287.06901389  .00000103  00000-0  29866-4 0  5818
2 25578 086.3929 096.6417 0002006 104.2108 035.0955 14.34220365785033
0 IRIDIUM 11
1 25578U 98074B   13288.11488676  .00000134  00000-0  40661-4 0  5825
2 25578 086.3930 096.2045 0002047 102.1353 033.7854 14.34216323785180
0 IRIDIUM 11
1 25578U 98074B   13288.11488676  .00000134  00000-0  40661-4 0  5836
2 25578 086.3930 096.2045 0002047 102.1353 033.7854 14.34216323785180
0 IRIDIUM 11
1 25578U 98074B   13289.15727091  .00000029  00000-0  34162-5 0  5842
2 25578 086.3933 095.7680 0001982 104.8696 009.6694 14.34217013785336
0 IRIDIUM 11
1 25578U 98074B   13289.48855588  .00000028  00000-0  28009-5 0  5854
2 25578 086.3934 095.6295 0001972 104.7862 279.1559 14.34217107785384
0 IRIDIUM 11
1 25578U 98074B   13290.46403542  .00000036  00000-0  58073-5 0  5867
2 25578 086.3935 095.2213 0002004 105.9096 271.4291 14.34217305785524
0 IRIDIUM 11
1 25578U 98074B   13291.44811750  .00000157  00000-0  49093-4 0  5876
2 25578 086.3937 094.8095 0001999 105.6103 309.5141 14.34217901785661
0 IRIDIUM 11
1 25578U 98074B   13292.49486707  .00000180  00000-0  57100-4 0  5887
2 25578 086.3938 094.3716 0001992 105.8671 310.4034 14.34218138785814
0 IRIDIUM 11
1 25578U 98074B   13293.46292819  .00000201  00000-0  64607-4 0  5899
2 25578 086.3939 093.9667 0001988 106.0346 265.3561 14.34218423785957
0 IRIDIUM 11
1 25578U 98074B   13294.37930638  .00000216  00000-0  70192-4 0  5902
2 25578 086.3939 093.5834 0001990 106.2311 313.6011 14.34218796786081
0 IRIDIUM 11
1 25578U 98074B   13295.49511487  .00000232  00000-0  75668-4 0  5915
2 25578 086.3939 093.1167 0001987 106.6536 310.6663 14.34219263786243
